JY1SAT (JO-97)          
1 43803U 18099AX  26068.68634132  .00017774  00000+0  60804-3 0  9996
2 43803  97.4249 131.3625 0004723 256.6795 103.3919 15.30302628398390
STARLINK-32172          
1 61518U 24183K   26068.49396085  .00000877  00000+0  41759-4 0  9996
2 61518  53.1601 143.2666 0001125  87.2122 272.9008 15.30188090 79625
